CCSDS_OMM_VERS = 2.0
CREATION_DATE  = 
ORIGINATOR     = 

OBJECT_NAME    = STARLINK-36707
OBJECT_ID      = 2026-025P
CENTER_NAME    = EARTH
REF_FRAME      = TEME
TIME_SYSTEM    = UTC
MEAN_ELEMENT_THEORY = SGP/SGP4

EPOCH          = 2026-02-18T06:00:02.000160
MEAN_MOTION    = 15.96501499
ECCENTRICITY   = .00015257
INCLINATION    = 97.2744
RA_OF_ASC_NODE = 159.7806
ARG_OF_PERICENTER = 56.1086
MEAN_ANOMALY   = 313.9368

EPHEMERIS_TYPE = 0
CLASSIFICATION_TYPE = U
NORAD_CAT_ID   = 67706
ELEMENT_SET_NO = 999
REV_AT_EPOCH   = 256
BSTAR          = -.34136291E-2
MEAN_MOTION_DOT = -.1416387E-1
MEAN_MOTION_DDOT = .60088903E-3

CCSDS_OMM_VERS = 2.0
CREATION_DATE  = 
ORIGINATOR     = 

OBJECT_NAME    = STARLINK-36645
OBJECT_ID      = 2026-025Q
CENTER_NAME    = EARTH
REF_FRAME      = TEME
TIME_SYSTEM    = UTC
MEAN_ELEMENT_THEORY = SGP/SGP4

EPOCH          = 2026-02-18T06:00:02.000160
MEAN_MOTION    = 15.95979241
ECCENTRICITY   = .00014528
INCLINATION    = 97.2749
RA_OF_ASC_NODE = 159.7754
ARG_OF_PERICENTER = 58.8234
MEAN_ANOMALY   = 300.0970

EPHEMERIS_TYPE = 0
CLASSIFICATION_TYPE = U
NORAD_CAT_ID   = 67707
ELEMENT_SET_NO = 999
REV_AT_EPOCH   = 233
BSTAR          = -.34888142E-2
MEAN_MOTION_DOT = -.1407456E-1
MEAN_MOTION_DDOT = .59061643E-3

CCSDS_OMM_VERS = 2.0
CREATION_DATE  = 
ORIGINATOR     = 

OBJECT_NAME    = STARLINK-36287
OBJECT_ID      = 2026-025R
CENTER_NAME    = EARTH
REF_FRAME      = TEME
TIME_SYSTEM    = UTC
MEAN_ELEMENT_THEORY = SGP/SGP4

EPOCH          = 2026-02-18T06:00:02.000160
MEAN_MOTION    = 15.96744359
ECCENTRICITY   = .00014916
INCLINATION    = 97.2740
RA_OF_ASC_NODE = 159.7822
ARG_OF_PERICENTER = 56.1668
MEAN_ANOMALY   = 319.1607

EPHEMERIS_TYPE = 0
CLASSIFICATION_TYPE = U
NORAD_CAT_ID   = 67708
ELEMENT_SET_NO = 999
REV_AT_EPOCH   = 288
BSTAR          = -.32975799E-2
MEAN_MOTION_DOT = -.1386672E-1
MEAN_MOTION_DDOT = .57925862E-3

CCSDS_OMM_VERS = 2.0
CREATION_DATE  = 
ORIGINATOR     = 

OBJECT_NAME    = STARLINK-36698
OBJECT_ID      = 2026-025S
CENTER_NAME    = EARTH
REF_FRAME      = TEME
TIME_SYSTEM    = UTC
MEAN_ELEMENT_THEORY = SGP/SGP4

EPOCH          = 2026-02-18T06:00:02.000160
MEAN_MOTION    = 15.97695603
ECCENTRICITY   = .00014553
INCLINATION    = 97.2738
RA_OF_ASC_NODE = 159.7910
ARG_OF_PERICENTER = 57.7264
MEAN_ANOMALY   = 337.5907

EPHEMERIS_TYPE = 0
CLASSIFICATION_TYPE = U
NORAD_CAT_ID   = 67709
ELEMENT_SET_NO = 999
REV_AT_EPOCH   = 272
BSTAR          = -.30457138E-2
MEAN_MOTION_DOT = -.1349402E-1
MEAN_MOTION_DDOT = .55642916E-3

CCSDS_OMM_VERS = 2.0
CREATION_DATE  = 
ORIGINATOR     = 

OBJECT_NAME    = STARLINK-36344
OBJECT_ID      = 2026-025T
CENTER_NAME    = EARTH
REF_FRAME      = TEME
TIME_SYSTEM    = UTC
MEAN_ELEMENT_THEORY = SGP/SGP4

EPOCH          = 2026-02-18T06:00:02.000160
MEAN_MOTION    = 15.97109433
ECCENTRICITY   = .00013874
INCLINATION    = 97.2740
RA_OF_ASC_NODE = 159.7857
ARG_OF_PERICENTER = 59.9545
MEAN_ANOMALY   = 323.0145

EPHEMERIS_TYPE = 0
CLASSIFICATION_TYPE = U
NORAD_CAT_ID   = 67710
ELEMENT_SET_NO = 999
REV_AT_EPOCH   = 288
BSTAR          = -.31923466E-2
MEAN_MOTION_DOT = -.1369503E-1
MEAN_MOTION_DDOT = .56826753E-3

CCSDS_OMM_VERS = 2.0
CREATION_DATE  = 
ORIGINATOR     = 

OBJECT_NAME    = STARLINK-36687
OBJECT_ID      = 2026-025U
CENTER_NAME    = EARTH
REF_FRAME      = TEME
TIME_SYSTEM    = UTC
MEAN_ELEMENT_THEORY = SGP/SGP4

EPOCH          = 2026-02-18T06:00:02.000160
MEAN_MOTION    = 15.97384353
ECCENTRICITY   = .00016012
INCLINATION    = 97.2739
RA_OF_ASC_NODE = 159.7882
ARG_OF_PERICENTER = 53.9611
MEAN_ANOMALY   = 334.7869

EPHEMERIS_TYPE = 0
CLASSIFICATION_TYPE = U
NORAD_CAT_ID   = 67711
ELEMENT_SET_NO = 999
REV_AT_EPOCH   = 288
BSTAR          = -.313337E-2
MEAN_MOTION_DOT = -.1364631E-1
MEAN_MOTION_DDOT = .56620319E-3

CCSDS_OMM_VERS = 2.0
CREATION_DATE  = 
ORIGINATOR     = 

OBJECT_NAME    = STARLINK-36705
OBJECT_ID      = 2026-025V
CENTER_NAME    = EARTH
REF_FRAME      = TEME
TIME_SYSTEM    = UTC
MEAN_ELEMENT_THEORY = SGP/SGP4

EPOCH          = 2026-02-18T06:00:02.000160
MEAN_MOTION    = 15.98021894
ECCENTRICITY   = .00015091
INCLINATION    = 97.2734
RA_OF_ASC_NODE = 159.7934
ARG_OF_PERICENTER = 55.0815
MEAN_ANOMALY   = 347.0668

EPHEMERIS_TYPE = 0
CLASSIFICATION_TYPE = U
NORAD_CAT_ID   = 67712
ELEMENT_SET_NO = 999
REV_AT_EPOCH   = 278
BSTAR          = -.29678354E-2
MEAN_MOTION_DOT = -.1338837E-1
MEAN_MOTION_DDOT = .55033679E-3

CCSDS_OMM_VERS = 2.0
CREATION_DATE  = 
ORIGINATOR     = 

OBJECT_NAME    = STARLINK-36708
OBJECT_ID      = 2026-025W
CENTER_NAME    = EARTH
REF_FRAME      = TEME
TIME_SYSTEM    = UTC
MEAN_ELEMENT_THEORY = SGP/SGP4

EPOCH          = 2026-02-18T06:00:02.000160
MEAN_MOTION    = 15.98795533
ECCENTRICITY   = .00015475
INCLINATION    = 97.2738
RA_OF_ASC_NODE = 159.8007
ARG_OF_PERICENTER = 57.2676
MEAN_ANOMALY   = 1.1920

EPHEMERIS_TYPE = 0
CLASSIFICATION_TYPE = U
NORAD_CAT_ID   = 67713
ELEMENT_SET_NO = 999
REV_AT_EPOCH   = 278
BSTAR          = -.27908535E-2
MEAN_MOTION_DOT = -.1314383E-1
MEAN_MOTION_DDOT = .53639385E-3

CCSDS_OMM_VERS = 2.0
CREATION_DATE  = 
ORIGINATOR     = 

OBJECT_NAME    = STARLINK-36702
OBJECT_ID      = 2026-025X
CENTER_NAME    = EARTH
REF_FRAME      = TEME
TIME_SYSTEM    = UTC
MEAN_ELEMENT_THEORY = SGP/SGP4

EPOCH          = 2026-02-18T06:00:02.000160
MEAN_MOTION    = 15.98561270
ECCENTRICITY   = .00015045
INCLINATION    = 97.2736
RA_OF_ASC_NODE = 159.7984
ARG_OF_PERICENTER = 54.2804
MEAN_ANOMALY   = 359.2483

EPHEMERIS_TYPE = 0
CLASSIFICATION_TYPE = U
NORAD_CAT_ID   = 67714
ELEMENT_SET_NO = 999
REV_AT_EPOCH   = 251
BSTAR          = -.28362755E-2
MEAN_MOTION_DOT = -.1318445E-1
MEAN_MOTION_DDOT = .53808245E-3

CCSDS_OMM_VERS = 2.0
CREATION_DATE  = 
ORIGINATOR     = 

OBJECT_NAME    = STARLINK-36718
OBJECT_ID      = 2026-025Y
CENTER_NAME    = EARTH
REF_FRAME      = TEME
TIME_SYSTEM    = UTC
MEAN_ELEMENT_THEORY = SGP/SGP4

EPOCH          = 2026-02-18T05:42:30.842208
MEAN_MOTION    = 15.99904006
ECCENTRICITY   = .00005237
INCLINATION    = 97.2747
RA_OF_ASC_NODE = 159.7918
ARG_OF_PERICENTER = 221.5673
MEAN_ANOMALY   = 138.5565

EPHEMERIS_TYPE = 0
CLASSIFICATION_TYPE = U
NORAD_CAT_ID   = 67715
ELEMENT_SET_NO = 999
REV_AT_EPOCH   = 287
BSTAR          = -.15265393E-3
MEAN_MOTION_DOT = -.77683E-3
MEAN_MOTION_DDOT = .4502864E-5

CCSDS_OMM_VERS = 2.0
CREATION_DATE  = 
ORIGINATOR     = 

OBJECT_NAME    = STARLINK-36715
OBJECT_ID      = 2026-025Z
CENTER_NAME    = EARTH
REF_FRAME      = TEME
TIME_SYSTEM    = UTC
MEAN_ELEMENT_THEORY = SGP/SGP4

EPOCH          = 2026-02-18T07:14:00.102048
MEAN_MOTION    = 15.99304245
ECCENTRICITY   = .00010251
INCLINATION    = 97.2741
RA_OF_ASC_NODE = 159.8583
ARG_OF_PERICENTER = 6.8206
MEAN_ANOMALY   = 353.3086

EPHEMERIS_TYPE = 0
CLASSIFICATION_TYPE = U
NORAD_CAT_ID   = 67716
ELEMENT_SET_NO = 999
REV_AT_EPOCH   = 288
BSTAR          = -.93659366E-3
MEAN_MOTION_DOT = -.456818E-2
MEAN_MOTION_DDOT = .75459249E-4

CCSDS_OMM_VERS = 2.0
CREATION_DATE  = 
ORIGINATOR     = 

OBJECT_NAME    = STARLINK-36385
OBJECT_ID      = 2026-025AA
CENTER_NAME    = EARTH
REF_FRAME      = TEME
TIME_SYSTEM    = UTC
MEAN_ELEMENT_THEORY = SGP/SGP4

EPOCH          = 2026-02-18T06:00:02.000160
MEAN_MOTION    = 15.98282963
ECCENTRICITY   = .00015093
INCLINATION    = 97.2739
RA_OF_ASC_NODE = 159.7962
ARG_OF_PERICENTER = 53.3869
MEAN_ANOMALY   = 354.2423

EPHEMERIS_TYPE = 0
CLASSIFICATION_TYPE = U
NORAD_CAT_ID   = 67717
ELEMENT_SET_NO = 999
REV_AT_EPOCH   = 278
BSTAR          = -.29109462E-2
MEAN_MOTION_DOT = -.1332308E-1
MEAN_MOTION_DDOT = .54693284E-3

