STARLINK-36707          
1 67706U 26025P   26049.25002315 -.01416387  60089-3 -34136-2 0  9997
2 67706  97.2744 159.7806 0001525  56.1086 313.9368 15.96501499  2561
STARLINK-36645          
1 67707U 26025Q   26049.25002315 -.01407456  59062-3 -34888-2 0  9998
2 67707  97.2749 159.7754 0001452  58.8234 300.0970 15.95979241  2336
STARLINK-36287          
1 67708U 26025R   26049.25002315 -.01386672  57926-3 -32976-2 0  9998
2 67708  97.2740 159.7822 0001491  56.1668 319.1607 15.96744359  2888
STARLINK-36698          
1 67709U 26025S   26049.25002315 -.01349402  55643-3 -30457-2 0  9995
2 67709  97.2738 159.7910 0001455  57.7264 337.5907 15.97695603  2721
STARLINK-36344          
1 67710U 26025T   26049.25002315 -.01369503  56827-3 -31923-2 0  9995
2 67710  97.2740 159.7857 0001387  59.9545 323.0145 15.97109433  2888
STARLINK-36687          
1 67711U 26025U   26049.25002315 -.01364631  56620-3 -31334-2 0  9990
2 67711  97.2739 159.7882 0001601  53.9611 334.7869 15.97384353  2880
STARLINK-36705          
1 67712U 26025V   26049.25002315 -.01338837  55034-3 -29678-2 0  9996
2 67712  97.2734 159.7934 0001509  55.0815 347.0668 15.98021894  2782
STARLINK-36708          
1 67713U 26025W   26049.25002315 -.01314383  53639-3 -27909-2 0  9991
2 67713  97.2738 159.8007 0001547  57.2676   1.1920 15.98795533  2787
STARLINK-36702          
1 67714U 26025X   26049.25002315 -.01318445  53808-3 -28363-2 0  9998
2 67714  97.2736 159.7984 0001504  54.2804 359.2483 15.98561270  2513
STARLINK-36718          
1 67715U 26025Y   26049.23785697 -.00077683  45029-5 -15265-3 0  9999
2 67715  97.2747 159.7918 0000523 221.5673 138.5565 15.99904006  2873
STARLINK-36715          
1 67716U 26025Z   26049.30139007 -.00456818  75459-4 -93659-3 0  9999
2 67716  97.2741 159.8583 0001025   6.8206 353.3086 15.99304245  2886
STARLINK-36385          
1 67717U 26025AA  26049.25002315 -.01332308  54693-3 -29109-2 0  9997
2 67717  97.2739 159.7962 0001509  53.3869 354.2423 15.98282963  2788
